YAOGAN 6                
1 34839U 09021A   17346.51912241  .00000605  00000-0  25937-4 0  9996
2 34839  97.1209  28.9285 0029926  50.2554 310.1314 15.25972961479785
